44057,ONEWEB-0012,2019,109.38,147.7,+,87.91,Active,1,LEO,French Guiana,UK,Commercial,Communications,Soyuz,1 44057U 19010A   24005.60461811 -.00004714  00000+0 -12392-1 0  9994,2 44057  87.9057  46.6499 0002272 118.5503 241.5857 13.16481893234018,13.16481893,0.0002272,LEO
44058,ONEWEB-0010,2019,109.38,147.7,+,87.91,Active,1,LEO,French Guiana,UK,Commercial,Communications,Soyuz,1 44058U 19010B   24005.62996159 -.00003209  00000+0 -84465-2 0  9994,2 44058  87.9047  46.6234 0002708 102.7020 257.4414 13.16472882234066,13.16472882,0.0002708,LEO
44059,ONEWEB-0008,2019,109.38,147.7,+,87.91,Active,1,LEO,French Guiana,UK,Commercial,Communications,Soyuz,1 44059U 19010C   24005.65529719  .00005089  00000+0  13304-1 0  9991,2 44059  87.9060  46.6186 0001618  98.7038 261.4276 13.16431408234172,13.16431408,0.0001618,LEO
44060,ONEWEB-0007,2019,109.46,147.7,+,87.9,Active,1,LEO,French Guiana,UK,Commercial,Communications,Soyuz,1 44060U 19010D   24005.58936769  .00000012  00000+0 -13343-5 0  9991,2 44060  87.9001  77.0770 0002011 115.5733 244.5605 13.15548159233880,13.15548159,0.0002011,LEO
44061,ONEWEB-0006,2019,109.46,147.7,+,87.9,Active,1,LEO,French Guiana,UK,Commercial,Communications,Soyuz,1 44061U 19010E   24005.57510809  .00000126  00000+0  30135-3 0  9995,2 44061  87.8989  77.0705 0002111 110.8254 249.3102 13.15548763233932,13.15548763,0.0002111,LEO
44062,ONEWEB-0011,2019,109.46,147.7,+,87.9,Active,1,LEO,French Guiana,UK,Commercial,Communications,Soyuz,1 44062U 19010F   24005.56322460 -.00000004  00000+0 -45156-4 0  9996,2 44062  87.8992  77.0781 0002037  98.3270 261.8091 13.15546727233929,13.15546727,0.0002037,LEO
45131,ONEWEB-0013,2020,109.98,148.0,+,87.86,Active,1,LEO,Kazakhstan,UK,Commercial,Communications,Soyuz,1 45131U 20008A   24005.66783862 -.00000198  00000+0 -61106-3 0  9997,2 45131  87.8563 232.4298 0000845 125.6970 234.4235 13.09366712189896,13.09366712,8.45e-05,LEO
45132,ONEWEB-0017,2020,109.89,148.0,+,87.89,Active,1,LEO,Kazakhstan,UK,Commercial,Communications,Soyuz,1 45132U 20008B   24005.61742904 -.00000083  00000+0 -27358-3 0  9999,2 45132  87.8900 213.7571 0001621  84.6556 275.4756 13.10370938190921,13.10370938,0.0001621,LEO
